0 AURORA 2 R/B(PAM-D)
1 21394U 91037C   13279.74307591 -.00000012  00000-0  00000+0 0  5772
2 21394 023.8306 269.9054 6852717 199.6370 234.1738 02.22013804181403
0 AURORA 2 R/B(PAM-D)
1 21394U 91037C   13282.76109490 -.00000013  00000-0  00000+0 0  5788
2 21394 023.8175 269.0546 6853030 201.1078 126.3132 02.22014046181462
0 AURORA 2 R/B(PAM-D)
1 21394U 91037C   13285.28875953  .00000011  00000-0  00000+0 0  5790
2 21394 023.8073 268.3413 6853215 202.3398 346.5391 02.22014278181524
0 AURORA 2 R/B(PAM-D)
1 21394U 91037C   13290.24684314 -.00000027  00000-0  00000+0 0  5801
2 21394 023.7899 266.9427 6853648 204.7541 349.2842 02.22014250181637
0 AURORA 2 R/B(PAM-D)
1 21394U 91037C   13293.40789618 -.00000074  00000-0  00000+0 0  5818
2 21394 023.7792 266.0505 6853931 206.2942 355.7590 02.22013950181700
